CCSDS_OMM_VERS = 2.0
CREATION_DATE  = 
ORIGINATOR     = 

OBJECT_NAME    = STARLINK-36527
OBJECT_ID      = 2026-020Q
CENTER_NAME    = EARTH
REF_FRAME      = TEME
TIME_SYSTEM    = UTC
MEAN_ELEMENT_THEORY = SGP/SGP4

EPOCH          = 2026-02-19T21:31:09.914592
MEAN_MOTION    = 15.82123211
ECCENTRICITY   = .00020607
INCLINATION    = 42.9973
RA_OF_ASC_NODE = 249.7929
ARG_OF_PERICENTER = 307.2393
MEAN_ANOMALY   = 52.8291

EPHEMERIS_TYPE = 0
CLASSIFICATION_TYPE = U
NORAD_CAT_ID   = 67631
ELEMENT_SET_NO = 999
REV_AT_EPOCH   = 328
BSTAR          = .21181673E-2
MEAN_MOTION_DOT = .473093E-2
MEAN_MOTION_DDOT = 0

CCSDS_OMM_VERS = 2.0
CREATION_DATE  = 
ORIGINATOR     = 

OBJECT_NAME    = STARLINK-36633
OBJECT_ID      = 2026-020R
CENTER_NAME    = EARTH
REF_FRAME      = TEME
TIME_SYSTEM    = UTC
MEAN_ELEMENT_THEORY = SGP/SGP4

EPOCH          = 2026-02-19T22:00:03.000096
MEAN_MOTION    = 15.76353080
ECCENTRICITY   = .00022943
INCLINATION    = 42.9991
RA_OF_ASC_NODE = 249.7117
ARG_OF_PERICENTER = 274.8882
MEAN_ANOMALY   = 184.0584

EPHEMERIS_TYPE = 0
CLASSIFICATION_TYPE = U
NORAD_CAT_ID   = 67632
ELEMENT_SET_NO = 999
REV_AT_EPOCH   = 453
BSTAR          = .60055972E-4
MEAN_MOTION_DOT = .9297E-4
MEAN_MOTION_DDOT = 0

CCSDS_OMM_VERS = 2.0
CREATION_DATE  = 
ORIGINATOR     = 

OBJECT_NAME    = STARLINK-36637
OBJECT_ID      = 2026-020S
CENTER_NAME    = EARTH
REF_FRAME      = TEME
TIME_SYSTEM    = UTC
MEAN_ELEMENT_THEORY = SGP/SGP4

EPOCH          = 2026-02-19T22:15:57.834144
MEAN_MOTION    = 15.76433786
ECCENTRICITY   = .00035633
INCLINATION    = 42.9974
RA_OF_ASC_NODE = 250.0457
ARG_OF_PERICENTER = 248.2148
MEAN_ANOMALY   = 111.8342

EPHEMERIS_TYPE = 0
CLASSIFICATION_TYPE = U
NORAD_CAT_ID   = 67633
ELEMENT_SET_NO = 999
REV_AT_EPOCH   = 328
BSTAR          = .88786395E-3
MEAN_MOTION_DOT = .147099E-2
MEAN_MOTION_DDOT = 0

CCSDS_OMM_VERS = 2.0
CREATION_DATE  = 
ORIGINATOR     = 

OBJECT_NAME    = STARLINK-36617
OBJECT_ID      = 2026-020T
CENTER_NAME    = EARTH
REF_FRAME      = TEME
TIME_SYSTEM    = UTC
MEAN_ELEMENT_THEORY = SGP/SGP4

EPOCH          = 2026-02-19T13:53:41.567712
MEAN_MOTION    = 15.82319905
ECCENTRICITY   = .0002494
INCLINATION    = 42.9974
RA_OF_ASC_NODE = 251.7110
ARG_OF_PERICENTER = 228.4418
MEAN_ANOMALY   = 131.6240

EPHEMERIS_TYPE = 0
CLASSIFICATION_TYPE = U
NORAD_CAT_ID   = 67634
ELEMENT_SET_NO = 999
REV_AT_EPOCH   = 323
BSTAR          = .27539E-2
MEAN_MOTION_DOT = .63264E-2
MEAN_MOTION_DDOT = 0

CCSDS_OMM_VERS = 2.0
CREATION_DATE  = 
ORIGINATOR     = 

OBJECT_NAME    = STARLINK-36627
OBJECT_ID      = 2026-020U
CENTER_NAME    = EARTH
REF_FRAME      = TEME
TIME_SYSTEM    = UTC
MEAN_ELEMENT_THEORY = SGP/SGP4

EPOCH          = 2026-02-19T22:06:31.394880
MEAN_MOTION    = 15.76414387
ECCENTRICITY   = .00016018
INCLINATION    = 42.9977
RA_OF_ASC_NODE = 249.9932
ARG_OF_PERICENTER = 295.6077
MEAN_ANOMALY   = 64.4627

EPHEMERIS_TYPE = 0
CLASSIFICATION_TYPE = U
NORAD_CAT_ID   = 67635
ELEMENT_SET_NO = 999
REV_AT_EPOCH   = 328
BSTAR          = .15092558E-2
MEAN_MOTION_DOT = .253304E-2
MEAN_MOTION_DDOT = 0

CCSDS_OMM_VERS = 2.0
CREATION_DATE  = 
ORIGINATOR     = 

OBJECT_NAME    = STARLINK-36624
OBJECT_ID      = 2026-020V
CENTER_NAME    = EARTH
REF_FRAME      = TEME
TIME_SYSTEM    = UTC
MEAN_ELEMENT_THEORY = SGP/SGP4

EPOCH          = 2026-02-19T22:00:03.000096
MEAN_MOTION    = 15.76366317
ECCENTRICITY   = .00014477
INCLINATION    = 42.9993
RA_OF_ASC_NODE = 249.7426
ARG_OF_PERICENTER = 280.8769
MEAN_ANOMALY   = 165.6376

EPHEMERIS_TYPE = 0
CLASSIFICATION_TYPE = U
NORAD_CAT_ID   = 67636
ELEMENT_SET_NO = 999
REV_AT_EPOCH   = 453
BSTAR          = -.86888366E-4
MEAN_MOTION_DOT = -.14611E-3
MEAN_MOTION_DDOT = 0

CCSDS_OMM_VERS = 2.0
CREATION_DATE  = 
ORIGINATOR     = 

OBJECT_NAME    = STARLINK-36610
OBJECT_ID      = 2026-020W
CENTER_NAME    = EARTH
REF_FRAME      = TEME
TIME_SYSTEM    = UTC
MEAN_ELEMENT_THEORY = SGP/SGP4

EPOCH          = 2026-02-19T22:09:39.517920
MEAN_MOTION    = 15.76351045
ECCENTRICITY   = .00017969
INCLINATION    = 42.9975
RA_OF_ASC_NODE = 250.0101
ARG_OF_PERICENTER = 260.8001
MEAN_ANOMALY   = 99.2665

EPHEMERIS_TYPE = 0
CLASSIFICATION_TYPE = U
NORAD_CAT_ID   = 67637
ELEMENT_SET_NO = 999
REV_AT_EPOCH   = 328
BSTAR          = .48603706E-3
MEAN_MOTION_DOT = .7935E-3
MEAN_MOTION_DDOT = 0

CCSDS_OMM_VERS = 2.0
CREATION_DATE  = 
ORIGINATOR     = 

OBJECT_NAME    = STARLINK-36599
OBJECT_ID      = 2026-020X
CENTER_NAME    = EARTH
REF_FRAME      = TEME
TIME_SYSTEM    = UTC
MEAN_ELEMENT_THEORY = SGP/SGP4

EPOCH          = 2026-02-19T22:53:10.526784
MEAN_MOTION    = 15.82089197
ECCENTRICITY   = .00022451
INCLINATION    = 42.9966
RA_OF_ASC_NODE = 249.3581
ARG_OF_PERICENTER = 274.4216
MEAN_ANOMALY   = 85.6399

EPHEMERIS_TYPE = 0
CLASSIFICATION_TYPE = U
NORAD_CAT_ID   = 67638
ELEMENT_SET_NO = 999
REV_AT_EPOCH   = 329
BSTAR          = .97698884E-3
MEAN_MOTION_DOT = .211006E-2
MEAN_MOTION_DDOT = 0

CCSDS_OMM_VERS = 2.0
CREATION_DATE  = 
ORIGINATOR     = 

OBJECT_NAME    = STARLINK-36595
OBJECT_ID      = 2026-020Y
CENTER_NAME    = EARTH
REF_FRAME      = TEME
TIME_SYSTEM    = UTC
MEAN_ELEMENT_THEORY = SGP/SGP4

EPOCH          = 2026-02-19T22:00:03.000096
MEAN_MOTION    = 15.76338037
ECCENTRICITY   = .00020044
INCLINATION    = 42.9993
RA_OF_ASC_NODE = 249.6489
ARG_OF_PERICENTER = 273.3251
MEAN_ANOMALY   = 210.5200

EPHEMERIS_TYPE = 0
CLASSIFICATION_TYPE = U
NORAD_CAT_ID   = 67639
ELEMENT_SET_NO = 999
REV_AT_EPOCH   = 453
BSTAR          = .19183276E-3
MEAN_MOTION_DOT = .30826E-3
MEAN_MOTION_DDOT = 0

CCSDS_OMM_VERS = 2.0
CREATION_DATE  = 
ORIGINATOR     = 

OBJECT_NAME    = STARLINK-36570
OBJECT_ID      = 2026-020Z
CENTER_NAME    = EARTH
REF_FRAME      = TEME
TIME_SYSTEM    = UTC
MEAN_ELEMENT_THEORY = SGP/SGP4

EPOCH          = 2026-02-19T22:00:12.740832
MEAN_MOTION    = 15.76430465
ECCENTRICITY   = .00022165
INCLINATION    = 42.9980
RA_OF_ASC_NODE = 249.9555
ARG_OF_PERICENTER = 279.2470
MEAN_ANOMALY   = 80.8149

EPHEMERIS_TYPE = 0
CLASSIFICATION_TYPE = U
NORAD_CAT_ID   = 67640
ELEMENT_SET_NO = 999
REV_AT_EPOCH   = 328
BSTAR          = .15203004E-2
MEAN_MOTION_DOT = .255412E-2
MEAN_MOTION_DDOT = 0

CCSDS_OMM_VERS = 2.0
CREATION_DATE  = 
ORIGINATOR     = 

OBJECT_NAME    = STARLINK-36514
OBJECT_ID      = 2026-020AA
CENTER_NAME    = EARTH
REF_FRAME      = TEME
TIME_SYSTEM    = UTC
MEAN_ELEMENT_THEORY = SGP/SGP4

EPOCH          = 2026-02-19T13:43:16.531104
MEAN_MOTION    = 15.82207500
ECCENTRICITY   = .0002918
INCLINATION    = 42.9967
RA_OF_ASC_NODE = 251.6529
ARG_OF_PERICENTER = 274.6053
MEAN_ANOMALY   = 85.4485

EPHEMERIS_TYPE = 0
CLASSIFICATION_TYPE = U
NORAD_CAT_ID   = 67641
ELEMENT_SET_NO = 999
REV_AT_EPOCH   = 323
BSTAR          = .18437E-2
MEAN_MOTION_DOT = .410326E-2
MEAN_MOTION_DDOT = 0

CCSDS_OMM_VERS = 2.0
CREATION_DATE  = 
ORIGINATOR     = 

OBJECT_NAME    = STARLINK-36556
OBJECT_ID      = 2026-020AB
CENTER_NAME    = EARTH
REF_FRAME      = TEME
TIME_SYSTEM    = UTC
MEAN_ELEMENT_THEORY = SGP/SGP4

EPOCH          = 2026-02-19T22:00:03.000096
MEAN_MOTION    = 15.76346398
ECCENTRICITY   = .0001641
INCLINATION    = 42.9987
RA_OF_ASC_NODE = 249.8035
ARG_OF_PERICENTER = 268.4630
MEAN_ANOMALY   = 153.1804

EPHEMERIS_TYPE = 0
CLASSIFICATION_TYPE = U
NORAD_CAT_ID   = 67642
ELEMENT_SET_NO = 999
REV_AT_EPOCH   = 453
BSTAR          = .10639931E-3
MEAN_MOTION_DOT = .16858E-3
MEAN_MOTION_DDOT = 0

