STARLINK-36527          
1 67631U 26020Q   26050.89664253  .00473093  00000+0  21182-2 0  9990
2 67631  42.9973 249.7929 0002060 307.2393  52.8291 15.82123211  3282
STARLINK-36633          
1 67632U 26020R   26050.91670139  .00009297  00000+0  60056-4 0  9990
2 67632  42.9991 249.7117 0002294 274.8882 184.0584 15.76353080  4537
STARLINK-36637          
1 67633U 26020S   26050.92775271  .00147099  00000+0  88786-3 0  9997
2 67633  42.9974 250.0457 0003563 248.2148 111.8342 15.76433786  3284
STARLINK-36617          
1 67634U 26020T   26050.57895333  .00632640  00000+0  27539-2 0  9990
2 67634  42.9974 251.7110 0002494 228.4418 131.6240 15.82319905  3236
STARLINK-36627          
1 67635U 26020U   26050.92119670  .00253304  00000+0  15093-2 0  9991
2 67635  42.9977 249.9932 0001601 295.6077  64.4627 15.76414387  3287
STARLINK-36624          
1 67636U 26020V   26050.91670139 -.00014611  00000+0 -86888-4 0  9993
2 67636  42.9993 249.7426 0001447 280.8769 165.6376 15.76366317  4537
STARLINK-36610          
1 67637U 26020W   26050.92337405  .00079350  00000+0  48604-3 0  9993
2 67637  42.9975 250.0101 0001796 260.8001  99.2665 15.76351045  3283
STARLINK-36599          
1 67638U 26020X   26050.95359406  .00211006  00000+0  97699-3 0  9996
2 67638  42.9966 249.3581 0002245 274.4216  85.6399 15.82089197  3293
STARLINK-36595          
1 67639U 26020Y   26050.91670139  .00030826  00000+0  19183-3 0  9993
2 67639  42.9993 249.6489 0002004 273.3251 210.5200 15.76338037  4535
STARLINK-36570          
1 67640U 26020Z   26050.91681413  .00255412  00000+0  15203-2 0  9990
2 67640  42.9980 249.9555 0002216 279.2470  80.8149 15.76430465  3282
STARLINK-36514          
1 67641U 26020AA  26050.57171911  .00410326  00000+0  18437-2 0  9999
2 67641  42.9967 251.6529 0002918 274.6053  85.4485 15.82207500  3232
STARLINK-36556          
1 67642U 26020AB  26050.91670139  .00016858  00000+0  10640-3 0  9995
2 67642  42.9987 249.8035 0001641 268.4630 153.1804 15.76346398  4534
